[{"OBJECT_NAME":"STARLINK-1333","OBJECT_ID":"2020-025BB","EPOCH":"2026-03-09T07:14:06.140544","MEAN_MOTION":15.30221934,"ECCENTRICITY":0.00012184,"INCLINATION":53.1603,"RA_OF_ASC_NODE":79.6121,"ARG_OF_PERICENTER":85.9757,"MEAN_ANOMALY":274.1383,"EPHEMERIS_TYPE":0,"CLASSIFICATION_TYPE":"U","NORAD_CAT_ID":45580,"ELEMENT_SET_NO":999,"REV_AT_EPOCH":32544,"BSTAR":0.00027594344,"MEAN_MOTION_DOT":7.828e-5,"MEAN_MOTION_DDOT":0},{"OBJECT_NAME":"OBJECT BD","OBJECT_ID":"2025-313BD","EPOCH":"2026-03-09T15:06:44.992224","MEAN_MOTION":15.3000236,"ECCENTRICITY":0.00072867,"INCLINATION":97.397,"RA_OF_ASC_NODE":145.285,"ARG_OF_PERICENTER":333.4514,"MEAN_ANOMALY":26.6352,"EPHEMERIS_TYPE":0,"CLASSIFICATION_TYPE":"U","NORAD_CAT_ID":67299,"ELEMENT_SET_NO":999,"REV_AT_EPOCH":1083,"BSTAR":0.0027633805,"MEAN_MOTION_DOT":0.0008101,"MEAN_MOTION_DDOT":0}]
